ARIANE 40 R/B           
1 20443U 90005H   26033.16431691  .00000287  00000+0  10484-3 0  9998
2 20443  98.3158  94.8704 0009187 316.3734  43.6727 14.39845229887697
DELTA 2 R/B(1)          
1 20453U 90008B   26033.15614499  .00053944  00000+0  73012-3 0  9994
2 20453  35.6057  47.1737 0097822 288.2609  70.7501 15.51032146920609
COSMOS 2058             
1 20465U 90010A   26033.22232317  .00003511  00000+0  20831-3 0  9999
2 20465  82.4636  82.3688 0012048  95.7540 264.5064 15.10991143936883
SL-14 R/B               
1 20466U 90010B   26033.20964908  .00000533  00000+0  61654-4 0  9996
2 20466  82.5038 300.7150 0021204  59.0836 301.2460 14.83535368923222
SL-14 R/B               
1 20511U 90018B   26033.12569591  .00000403  00000+0  47672-4 0  9995
2 20511  82.5189 256.3387 0015669 204.6283 155.4185 14.82107470917314
HST                     
1 20580U 90037B   26032.98309778  .00007402  00000+0  24825-3 0  9994
2 20580  28.4672 283.4789 0002010  78.1649 281.9172 15.28901089767840
SL-16 R/B               
1 20625U 90046B   26033.28057155 -.00000140  00000+0 -47558-4 0  9990
2 20625  70.9994  12.2762 0014434 348.7488  11.3310 14.15004969843387
COSMOS 2084             
1 20663U 90055A   26033.25382196  .00002679  00000+0  19887-3 0  9995
2 20663  62.7898  96.4173 0022811 182.7515 177.3463 15.05416911930985
SL-6 R/B(2)             
1 20666U 90055D   26033.25510987  .00002586  00000+0  20311-3 0  9990
2 20666  62.7842  14.3323 0019608 336.5808  23.4396 15.03392568932861
SL-8 R/B                
1 20775U 90078B   26033.14780569  .00014671  00000+0  43446-3 0  9991
2 20775  82.9037 283.2424 0367616 133.0533 230.2103 14.87864158804010
SL-8 R/B                
1 21088U 91006B   26032.97040130  .00000010  00000+0 -57373-5 0  9993
2 21088  82.9425 196.6038 0023381 133.3873 340.7194 13.77491934759152
OKEAN-3                 
1 21397U 91039A   26033.03399836  .00002797  00000+0  19721-3 0  9996
2 21397  82.5176  11.3753 0016201  92.2534 268.0548 15.04515186859672
COSMOS 2151             
1 21422U 91042A   26033.26194588  .00001888  00000+0  14966-3 0  9997
2 21422  82.4978 117.8483 0012795 172.9293 187.2114 14.99962630857889
SL-14 R/B               
1 21423U 91042B   26033.30632130  .00000396  00000+0  47165-4 0  9994
2 21423  82.4905 253.3705 0017104   2.6491 357.4810 14.81795175847838
ERS-1                   
1 21574U 91050A   26033.31593929  .00000398  00000+0  14218-3 0  9997
2 21574  98.7895  50.6612 0031080 308.4521  51.3878 14.39418699810647
ARIANE 40 R/B           
1 21610U 91050F   26033.10424628  .00000325  00000+0  10981-3 0  9997
2 21610  98.2085  86.6633 0003439 161.7690 198.3625 14.42865482813869
INTERCOSMOS 25          
1 21819U 91086A   26033.23803740  .00000815  00000+0  15780-3 0  9993
2 21819  82.6090 331.4313 1486496 193.3166 162.4225 12.11903129492391
SL-8 R/B                
1 21876U 92008B   26033.24736356  .00000078  00000+0  65221-4 0  9997
2 21876  82.9276 294.1431 0033522 232.5855 245.2862 13.75969081704547
SL-8 R/B                
1 21938U 92020B   26033.14523223  .00000106  00000+0  93879-4 0  9998
2 21938  82.9320 180.1448 0029688  39.1934 133.5811 13.75543607696247
USA 81                  
1 21949U 92023A   26033.31063184  .00000229  00000+0  77582-4 0  9996
2 21949  85.0118 151.8397 0002447 108.8462 251.2996 14.32353730 89721
COSMOS 2219             
1 22219U 92076A   26033.29320990 -.00000234  00000+0 -98082-4 0  9999
2 22219  71.0593  92.0681 0020618 256.1226 103.7603 14.14077941713379
SL-16 R/B               
1 22220U 92076B   26033.05249006  .00000278  00000+0  16258-3 0  9993
2 22220  70.9985 263.4442 0011968 158.8783 307.3813 14.16852236716780
COSMOS 2221             
1 22236U 92080A   26033.25733243  .00002504  00000+0  22042-3 0  9990
2 22236  82.5068 313.0119 0013369 317.6777  42.3413 14.96049275775490
SL-16 R/B               
1 22285U 92093B   26033.26302733 -.00000225  00000+0 -90828-4 0  9993
2 22285  71.0208  78.6391 0004964 330.7570  29.3275 14.15442396708148
COSMOS 2228             
1 22286U 92094A   26033.22998629  .00001695  00000+0  14439-3 0  9999
2 22286  82.5167 271.2649 0019439  63.2471 297.0737 14.97024263770750
SL-16 R/B               
1 22566U 93016B   26033.15856687  .00000139  00000+0  95822-4 0  9992
2 22566  71.0083 289.8109 0009859   4.3556 355.7651 14.15303151697146
COSMOS 2242             
1 22626U 93024A   26033.19722315  .00002178  00000+0  18939-3 0  9990
2 22626  82.5205 300.6604 0018012  66.5974 293.7140 14.96391567775084
SL-16 R/B               
1 22803U 93059B   26033.25681027  .00000190  00000+0  11777-3 0  9991
2 22803  70.9894  85.8512 0019500 264.8168  95.0730 14.17224010674512
ARIANE 40 R/B           
1 22830U 93061H   26033.22446518  .00000249  00000+0  10694-3 0  9997
2 22830  98.4991 102.7987 0011190  34.7718 325.4195 14.32841134689028
COSMOS 2278             
1 23087U 94023A   26033.30637411 -.00000227  00000+0 -93995-4 0  9998
2 23087  71.0511 249.1264 0006362  80.1029 280.0812 14.14365370639803
SL-16 R/B               
1 23088U 94023B   26033.29820845 -.00000221  00000+0 -89259-4 0  9994
2 23088  71.0000 145.2136 0004407 318.2760  41.8026 14.15004229641083
SL-16 R/B               
1 23343U 94074B   26033.14497554  .00000483  00000+0  71479-4 0  9998
2 23343  97.7152  65.3952 0006172 350.1584  51.0194 14.79362915681990
SL-16 R/B               
1 23405U 94077B   26033.29364347 -.00000189  00000+0 -72048-4 0  9997
2 23405  70.9816  66.9568 0004588 243.6318 116.4334 14.15556854611227
ARIANE 40+ R/B          
1 23561U 95021B   26033.15902675  .00000317  00000+0  11525-3 0  9990
2 23561  98.4569 105.1100 0005782 243.4344 145.5398 14.39744665614133
SL-16 R/B               
1 23705U 95058B   26033.08689274  .00000145  00000+0  98647-4 0  9999
2 23705  71.0190 255.0030 0012694 183.6906 176.4126 14.15488460562817
SL-16 R/B               
1 24298U 96051B   26033.04703897  .00000068  00000+0  63423-4 0  9993
2 24298  70.7568 250.6828 0018016 197.3304 162.7203 14.12405353516612
ORBVIEW 2 (SEASTAR)     
1 24883U 97037A   26033.28769555  .00000316  00000+0  12605-3 0  9998
2 24883  98.8506 196.6739 0002703 145.0873 215.0489 14.35465832503394
SL-16 R/B               
1 25400U 98043G   26032.87800050  .00000063  00000+0  45142-4 0  9994
2 25400  98.8195 346.0013 0010792 115.5728 244.6569 14.26040624433889
SL-16 R/B               
1 25407U 98045B   26033.04469408 -.00000216  00000+0 -84988-4 0  9994
2 25407  71.0094 256.5351 0005120  75.0737 285.0953 14.16186210422050
ISS (ZARYA)             
1 25544U 98067A   26033.08145127  .00008786  00000+0  17110-3 0  9993
2 25544  51.6312 248.3815 0011127  55.3966 304.8070 15.48333853550811
CZ-4B R/B               
1 25732U 99025C   26033.10217674  .00000067  00000+0  53122-4 0  9995
2 25732  98.6695  78.2154 0038199  87.5047 299.0355 14.18257812383121
OKEAN-O                 
1 25860U 99039A   26033.16472735  .00000705  00000+0  99487-4 0  9992
2 25860  97.9518  93.4036 0001915  91.8983 268.2448 14.80273308429130
SL-16 R/B               
1 25861U 99039B   26033.17819974  .00000638  00000+0  87758-4 0  9997
2 25861  98.0041  92.3137 0015153  17.9164 342.2579 14.81678514431605
DELTA 2 R/B             
1 25876U 99041E   26033.18647037  .00001888  00000+0  34125-3 0  9993
2 25876  51.7644  83.0543 0502589 243.5306 111.3245 14.11683682358016
HELIOS 1B               
1 25977U 99064A   26033.26659273  .00002114  00000+0  23932-3 0  9991
2 25977  98.1736 294.4632 0001748 124.0221 236.1161 14.87544756679999
TERRA                   
1 25994U 99068A   26033.23475760  .00000488  00000+0  10864-3 0  9990
2 25994  97.9666  88.0104 0001112 317.1624  83.0115 14.60973910389901
SL-16 R/B               
1 26070U 00006B   26032.90953158  .00000179  00000+0  11514-3 0  9995
2 26070  71.0024 173.0679 0018514 240.0036 119.9250 14.15819177343492
TITAN 4B R/B            
1 26474U 00047B   26033.24474894  .00003588  00000+0  22969-3 0  9994
2 26474  67.9900 140.1564 0036699  79.4634 281.0646 15.09259077387564
ENVISAT                 
1 27386U 02009A   26033.30858029  .00000130  00000+0  55954-4 0  9991
2 27386  98.3671 347.7620 0001278  91.8882  65.4376 14.39022840254088
IDEFIX & ARIANE 42P R/B 
1 27422U 02021B   26033.25589568  .00000322  00000+0  13907-3 0  9993
2 27422  98.5836 332.2939 0010807 295.0935  64.9126 14.30998844238953
AQUA                    
1 27424U 02022A   26033.24078765  .00001146  00000+0  23900-3 0  9996
2 27424  98.4111 359.9781 0001709  58.9325  53.5424 14.61883832263554
CZ-4B R/B               
1 27432U 02024C   26033.13963204  .00000058  00000+0  52643-4 0  9994
2 27432  98.8914  86.7121 0051019 123.4800 295.8240 14.14540782224215
MIDORI II (ADEOS-II)    
1 27597U 02056A   26033.31094716  .00000349  00000+0  15503-3 0  9990
2 27597  98.7708 351.5589 0002113  92.5756 267.5667 14.29256264205241
H-2A R/B                
1 27601U 02056E   26033.17545543  .00000328  00000+0  12982-3 0  9994
2 27601  98.3138 354.9073 0068999 267.5139 101.9841 14.33733165209028
CZ-4B R/B               
1 28059U 03049C   26032.96775433  .00000509  00000+0  12832-3 0  9999
2 28059  98.6836  26.4827 0047875 342.1313  17.8197 14.54977430181404
CZ-2C R/B               
1 28222U 04012C   26033.12762313  .00045844  00000+0  55332-3 0  9997
2 28222  97.7321  95.1518 0016612  82.8459 277.4686 15.60459111198728
SL-16 R/B               
1 28353U 04021B   26033.24209919 -.00000134  00000+0 -44787-4 0  9991
2 28353  71.0011 306.8848 0002729  98.3777 261.7654 14.14589390117825
CZ-4B R/B               
1 28415U 04035C   26033.10475414  .00007416  00000+0  26634-3 0  9993
2 28415  97.3547  67.7828 0034332  94.9074 265.6087 15.28386634174476
CZ-2C R/B               
1 28480U 04046B   26033.28582224  .00000167  00000+0  77975-4 0  9995
2 28480  98.2000 310.4678 0138182 259.5444  99.0142 14.26978395103450
